{"type": "FeatureCollection", "features": [ {"type": "Feature", "properties": {"norad_id": 45344, "name": "BEIDOU-3 G2 (C60)", "group": "gnss", "lat": -2.415893602384582, "lon": -29.770382715007518, "alt_km": 35779.663006239345, "timestamp": "2025-12-18T10:51:26.047875+00:00", "meta": {"OBJECT_NAME": "BEIDOU-3 G2 (C60)", "OBJECT_ID": "2020-017A", "EPOCH": "2025-12-17T19:56:27.389184", "MEAN_MOTION": 1.00276574, "ECCENTRICITY": 0.0002286, "INCLINATION": 2.5064, "RA_OF_ASC_NODE": 43.9767, "ARG_OF_PERICENTER": 230.3031, "MEAN_ANOMALY": 191.5542, "EPHEMERIS_TYPE": 0, "CLASSIFICATION_TYPE": "U", "NORAD_CAT_ID": 45344, "ELEMENT_SET_NO": 999, "REV_AT_EPOCH": 2144, "BSTAR": 0, "MEAN_MOTION_DOT": -1.19e-06, "MEAN_MOTION_DDOT": 0}, "tle": {"line1": "1 45344U 20017A   25351.83087256 -.00000119  00000+0  00000+0 0  9995", "line2": "2 45344   2.5064  43.9767 0002286 230.3031 191.5542  1.00276574 21445"}}, "geometry": {"type": "Point", "coordinates": [-29.770382715007518, -2.415893602384582]}}, {"type": "Feature", "properties": {"norad_id": 45358, "name": "COSMOS 2545 (760)", "group": "gnss", "lat": -63.35452445568775, "lon": -113.48677983277211, "alt_km": 19110.256906652892, "timestamp": "2025-12-18T10:51:26.047893+00:00", "meta": {"OBJECT_NAME": "COSMOS 2545 (760)", "OBJECT_ID": "2020-018A", "EPOCH": "2025-12-16T05:06:52.711776", "MEAN_MOTION": 2.13102549, "ECCENTRICITY": 0.00116565, "INCLINATION": 64.4672, "RA_OF_ASC_NODE": 318.8472, "ARG_OF_PERICENTER": 249.26, "MEAN_ANOMALY": 110.6088, "EPHEMERIS_TYPE": 0, "CLASSIFICATION_TYPE": "U", "NORAD_CAT_ID": 45358, "ELEMENT_SET_NO": 999, "REV_AT_EPOCH": 4476, "BSTAR": 0, "MEAN_MOTION_DOT": -7e-07, "MEAN_MOTION_DDOT": 0}, "tle": {"line1": "1 45358U 20018A   25350.21311009 -.00000070  00000+0  00000+0 0  9994", "line2": "2 45358  64.4672 318.8472 0011656 249.2600 110.6088  2.13102549 44763"}}, "geometry": {"type": "Point", "coordinates": [-113.48677983277211, -63.35452445568775]}}, {"type": "Feature", "properties": {"norad_id": 45807, "name": "BEIDOU-3 G3 (C61)", "group": "gnss", "lat": -1.8247505527194245, "lon": 0.7402717859492003, "alt_km": 35760.45434596855, "timestamp": "2025-12-18T10:51:26.047907+00:00", "meta": {"OBJECT_NAME": "BEIDOU-3 G3 (C61)", "OBJECT_ID": "2020-040A", "EPOCH": "2025-12-17T20:42:00.687744", "MEAN_MOTION": 1.00271811, "ECCENTRICITY": 0.0006402, "INCLINATION": 2.0032, "RA_OF_ASC_NODE": 66.6314, "ARG_OF_PERICENTER": 309.0943, "MEAN_ANOMALY": 132.0925, "EPHEMERIS_TYPE": 0, "CLASSIFICATION_TYPE": "U", "NORAD_CAT_ID": 45807, "ELEMENT_SET_NO": 999, "REV_AT_EPOCH": 2025, "BSTAR": 0, "MEAN_MOTION_DOT": -3.31e-06, "MEAN_MOTION_DDOT": 0}, "tle": {"line1": "1 45807U 20040A   25351.86250796 -.00000331  00000+0  00000+0 0  9995", "line2": "2 45807   2.0032  66.6314 0006402 309.0943 132.0925  1.00271811 20251"}}, "geometry": {"type": "Point", "coordinates": [0.7402717859492003, -1.8247505527194245]}}, {"type": "Feature", "properties": {"norad_id": 45854, "name": "GPS BIII-3  (PRN 23)", "group": "gnss", "lat": 25.740710757087577, "lon": -162.58756669354457, "alt_km": 20086.500172060074, "timestamp": "2025-12-18T10:51:26.047919+00:00", "meta": {"OBJECT_NAME": "GPS BIII-3  (PRN 23)", "OBJECT_ID": "2020-041A", "EPOCH": "2025-12-17T06:02:11.568192", "MEAN_MOTION": 2.00562016, "ECCENTRICITY": 0.00605926, "INCLINATION": 56.5499, "RA_OF_ASC_NODE": 36.0099, "ARG_OF_PERICENTER": 203.5861, "MEAN_ANOMALY": 158.5614, "EPHEMERIS_TYPE": 0, "CLASSIFICATION_TYPE": "U", "NORAD_CAT_ID": 45854, "ELEMENT_SET_NO": 999, "REV_AT_EPOCH": 4039, "BSTAR": 0, "MEAN_MOTION_DOT": -7.7e-07, "MEAN_MOTION_DDOT": 0}, "tle": {"line1": "1 45854U 20041A   25351.25152278 -.00000077  00000+0  00000+0 0  9994", "line2": "2 45854  56.5499  36.0099 0060592 203.5861 158.5614  2.00562016 40398"}}, "geometry": {"type": "Point", "coordinates": [-162.58756669354457, 25.740710757087577]}}, {"type": "Feature", "properties": {"norad_id": 46114, "name": "GALAXY 30 (WAAS/PRN 135)", "group": "gnss", "lat": 0.02748159770882706, "lon": 125.15464499426204, "alt_km": 35792.58045634693, "timestamp": "2025-12-18T10:51:26.047942+00:00", "meta": {"OBJECT_NAME": "GALAXY 30 (WAAS/PRN 135)", "OBJECT_ID": "2020-056C", "EPOCH": "2025-12-17T16:09:21.285792", "MEAN_MOTION": 1.00272596, "ECCENTRICITY": 0.00020342, "INCLINATION": 0.0187, "RA_OF_ASC_NODE": 340.7009, "ARG_OF_PERICENTER": 286.3585, "MEAN_ANOMALY": 296.8309, "EPHEMERIS_TYPE": 0, "CLASSIFICATION_TYPE": "U", "NORAD_CAT_ID": 46114, "ELEMENT_SET_NO": 999, "REV_AT_EPOCH": 1947, "BSTAR": 0, "MEAN_MOTION_DOT": 6.2e-07, "MEAN_MOTION_DDOT": 0}, "tle": {"line1": "1 46114U 20056C   25351.67316303  .00000062  00000+0  00000+0 0  9990", "line2": "2 46114   0.0187 340.7009 0002034 286.3585 296.8309  1.00272596 19473"}}, "geometry": {"type": "Point", "coordinates": [125.15464499426204, 0.02748159770882706]}}, {"type": "Feature", "properties": {"norad_id": 46805, "name": "COSMOS 2547 (705K)", "group": "gnss", "lat": 40.94679389674183, "lon": -5.850143947779505, "alt_km": 19126.660300813848, "timestamp": "2025-12-18T10:51:26.047957+00:00", "meta": {"OBJECT_NAME": "COSMOS 2547 (705K)", "OBJECT_ID": "2020-075A", "EPOCH": "2025-12-17T08:09:16.456320", "MEAN_MOTION": 2.1310013, "ECCENTRICITY": 0.0006169, "INCLINATION": 64.5962, "RA_OF_ASC_NODE": 198.5429, "ARG_OF_PERICENTER": 228.3795, "MEAN_ANOMALY": 131.6499, "EPHEMERIS_TYPE": 0, "CLASSIFICATION_TYPE": "U", "NORAD_CAT_ID": 46805, "ELEMENT_SET_NO": 999, "REV_AT_EPOCH": 4003, "BSTAR": 0, "MEAN_MOTION_DOT": 1.12e-06, "MEAN_MOTION_DDOT": 0}, "tle": {"line1": "1 46805U 20075A   25351.33977380  .00000112  00000+0  00000+0 0  9995", "line2": "2 46805  64.5962 198.5429 0006169 228.3795 131.6499  2.13100130 40034"}}, "geometry": {"type": "Point", "coordinates": [-5.850143947779505, 40.94679389674183]}}, {"type": "Feature", "properties": {"norad_id": 46826, "name": "GPS BIII-4  (PRN 14)", "group": "gnss", "lat": 44.73399405021284, "lon": -7.900282797216457, "alt_km": 20157.300249289037, "timestamp": "2025-12-18T10:51:26.047969+00:00", "meta": {"OBJECT_NAME": "GPS BIII-4  (PRN 14)", "OBJECT_ID": "2020-078A", "EPOCH": "2025-12-16T01:06:13.902336", "MEAN_MOTION": 2.00566891, "ECCENTRICITY": 0.00647554, "INCLINATION": 54.0145, "RA_OF_ASC_NODE": 218.2068, "ARG_OF_PERICENTER": 203.3828, "MEAN_ANOMALY": 339.3936, "EPHEMERIS_TYPE": 0, "CLASSIFICATION_TYPE": "U", "NORAD_CAT_ID": 46826, "ELEMENT_SET_NO": 999, "REV_AT_EPOCH": 3783, "BSTAR": 0, "MEAN_MOTION_DOT": 6.7e-07, "MEAN_MOTION_DDOT": 0}, "tle": {"line1": "1 46826U 20078A   25350.04599424  .00000067  00000+0  00000+0 0  9996", "line2": "2 46826  54.0145 218.2068 0064755 203.3828 339.3936  2.00566891 37831"}}, "geometry": {"type": "Point", "coordinates": [-7.900282797216457, 44.73399405021284]}}, {"type": "Feature", "properties": {"norad_id": 48859, "name": "GPS BIII-5  (PRN 11)", "group": "gnss", "lat": -41.87643803651332, "lon": -58.76234788669041, "alt_km": 20167.500486300363, "timestamp": "2025-12-18T10:51:26.047980+00:00", "meta": {"OBJECT_NAME": "GPS BIII-5  (PRN 11)", "OBJECT_ID": "2021-054A", "EPOCH": "2025-12-08T04:14:32.423424", "MEAN_MOTION": 2.00553627, "ECCENTRICITY": 0.0024678, "INCLINATION": 55.2581, "RA_OF_ASC_NODE": 340.1367, "ARG_OF_PERICENTER": 233.3994, "MEAN_ANOMALY": 212.8593, "EPHEMERIS_TYPE": 0, "CLASSIFICATION_TYPE": "U", "NORAD_CAT_ID": 48859, "ELEMENT_SET_NO": 999, "REV_AT_EPOCH": 3292, "BSTAR": 0, "MEAN_MOTION_DOT": -8.6e-07, "MEAN_MOTION_DDOT": 0}, "tle": {"line1": "1 48859U 21054A   25342.17676416 -.00000086  00000+0  00000+0 0  9993", "line2": "2 48859  55.2581 340.1367 0024678 233.3994 212.8593  2.00553627 32922"}}, "geometry": {"type": "Point", "coordinates": [-58.76234788669041, -41.87643803651332]}}, {"type": "Feature", "properties": {"norad_id": 49336, "name": "QZS-1R (QZSS/PRN 196)", "group": "gnss", "lat": -28.729930173040795, "lon": 35.85622773666469, "alt_km": 33143.342176776576, "timestamp": "2025-12-18T10:51:26.047992+00:00", "meta": {"OBJECT_NAME": "QZS-1R (QZSS/PRN 196)", "OBJECT_ID": "2021-096A", "EPOCH": "2025-12-17T14:00:33.617952", "MEAN_MOTION": 1.00256208, "ECCENTRICITY": 0.07563637, "INCLINATION": 37.0872, "RA_OF_ASC_NODE": 82.2877, "ARG_OF_PERICENTER": 271.4154, "MEAN_ANOMALY": 77.3787, "EPHEMERIS_TYPE": 0, "CLASSIFICATION_TYPE": "U", "NORAD_CAT_ID": 49336, "ELEMENT_SET_NO": 999, "REV_AT_EPOCH": 1518, "BSTAR": 0, "MEAN_MOTION_DOT": -2.76e-06, "MEAN_MOTION_DDOT": 0}, "tle": {"line1": "1 49336U 21096A   25351.58372243 -.00000276  00000+0  00000+0 0  9997", "line2": "2 49336  37.0872  82.2877 0756363 271.4154  77.3787  1.00256208 15180"}}, "geometry": {"type": "Point", "coordinates": [35.85622773666469, -28.729930173040795]}}, {"type": "Feature", "properties": {"norad_id": 49809, "name": "GSAT0223 (GALILEO 27)", "group": "gnss", "lat": 55.60012451276687, "lon": 56.83185539283149, "alt_km": 23228.666896163453, "timestamp": "2025-12-18T10:51:26.048008+00:00", "meta": {"OBJECT_NAME": "GSAT0223 (GALILEO 27)", "OBJECT_ID": "2021-116A", "EPOCH": "2025-12-16T20:22:21.643104", "MEAN_MOTION": 1.70476101, "ECCENTRICITY": 0.00044272, "INCLINATION": 57.2185, "RA_OF_ASC_NODE": 346.6017, "ARG_OF_PERICENTER": 254.1798, "MEAN_ANOMALY": 280.7094, "EPHEMERIS_TYPE": 0, "CLASSIFICATION_TYPE": "U", "NORAD_CAT_ID": 49809, "ELEMENT_SET_NO": 999, "REV_AT_EPOCH": 2507, "BSTAR": 0, "MEAN_MOTION_DOT": -7.9e-07, "MEAN_MOTION_DDOT": 0}, "tle": {"line1": "1 49809U 21116A   25350.84886161 -.00000079  00000+0  00000+0 0  9993", "line2": "2 49809  57.2185 346.6017 0004427 254.1798 280.7094  1.70476101 25071"}}, "geometry": {"type": "Point", "coordinates": [56.83185539283149, 55.60012451276687]}}]}